;C_NY;pais;gab_inau;anio;presi_Nomb;presi_Elec;muj_gab;Muj_Gab;gab_muj;gab_tamanio;presi_gen;fecha_inic;fecha fin;tiempo;gen_pond;pres_pond;GPSparcial;GPSCNY;GPSCN;GENPOND;PRESPOND;Country Name;Muj_Parla;Series Name;Series Code;Country Code;laborforcefemILO;country_name;country_id;v2x_polyarchy;v2x_libdem;v2x_partipdem;v2x_delibdem;v2x_egaldem;MUJCONG
1;arg_2000;arg;1;2000;F. De la R<fa>a;0;0.090909091;90.909.091;1;11;0;10/12/1999;21/12/2001;0;0.333333333333333;0.333333333333333;0.666666666666667;0.0606060606666667;0.00505050505555556;0.0555555555555556;0.0555555555555556;Argentina;2.645.914.397;Labor force participation rate;female (% of female population ages 15+) (modeled ILO estimate);Argentina;4.982.600.021;Argentina;37;0.837;0.648;0.565;0.76;0.655;0.2645914397
2;arg_2003;arg;1;2003;N. Kirchner;0;0.3;30;3;10;0;25/05/2003;10/12/2007;0;10.952.380.952.381;1;209.523.809.523.809;0.628571428571428;0.0523809523809524;0.182539682539683;0.166666666666667;Argentina;3.073.929.961;Labor force participation rate;female (% of female population ages 15+) (modeled ILO estimate);Argentina;4.937.200.165;Argentina;37;0.819;0.65;0.547;0.678;0.646;0.3073929961
3;arg_2008;arg;1;2008;C. Fernandez de Kirchner;0;0.272727273;272.727.273;3;11;1;10/12/2007;09/12/2011;0;116.666.666.666.667;1.4;256.666.666.666.667;0.7000000007;0.0583333333916667;0.194444444444444;0.233333333333333;Argentina;40;Labor force participation rate;female (% of female population ages 15+) (modeled ILO estimate);Argentina;4.827.799.988;Argentina;37;0.783;0.591;0.49;0.572;0.616;0.4
4;arg_2012;arg;1;2012;C. Fernandez de Kirchner;0;0.2;20;3;15;1;10/12/2011;09/12/2015;1;0.933333333333333;107.142.857.142.857;20.047.619.047.619;0.400952380952381;0.0334126984126984;0.155555555555556;0.178571428571429;Argentina;373.540.856;Labor force participation rate;female (% of female population ages 15+) (modeled ILO estimate);Argentina;4.832.400.131;Argentina;37;0.816;0.607;0.545;0.62;0.645;0.373540856
5;arg_2016;arg;1;2016;M. Macri;0;0.142857143;142.857.143;3;21;0;10/12/2015;10/12/2019;1;0.711538461538462;103.571.428.571.429;174.725.274.725.275;0.249607535571429;0.0208006279642857;0.118589743589744;0.172619047619048;Argentina;3.579.766.537;Labor force participation rate;female (% of female population ages 15+) (modeled ILO estimate);Argentina;4.869.900.131;Argentina;37;0.747;0.611;0.501;0.584;0.563;0.3579766537
6;bol_2003;bol;1;2003;G. Sanchez de Lozada;0;0.111111111;111.111.111;2;18;0;06/08/2002;17/10/2003;0;0.866666666666667;0.75;161.666.666.666.667;0.17962962945;0.0149691357875;0.144444444444444;0.125;Bolivia;1.846.153.846;Labor force participation rate;female (% of female population ages 15+) (modeled ILO estimate);Bolivia;6.139.300.156;Bolivia;25;0.735;0.526;0.424;0.608;0.508;0.1846153846
7;bol_2006;bol;1;2006;E. Morales;0;0.176470588;176.470.588;3;17;0;26/01/2006;22/01/2010;0;0.9;0.833333333333333;173.333.333.333.333;0.305882352533333;0.0254901960444444;0.15;0.138888888888889;Bolivia;1.692.307.692;Labor force participation rate;female (% of female population ages 15+) (modeled ILO estimate);Bolivia;6.312.900.162;Bolivia;25;0.768;0.482;0.595;0.594;0.559;0.1692307692
8;bol_2010;bol;1;2010;E. Morales;0;0.454545455;454.545.455;10;22;0;22/01/2010;22/01/2014;1;269.805.194.805.195;2.75;544.805.194.805.195;247.638.725.159.091;0.206365604299242;0.449675324675325;0.458333333333333;Bolivia;2.538.461.538;Labor force participation rate;female (% of female population ages 15+) (modeled ILO estimate);Bolivia;6.196.699.905;Bolivia;25;0.705;0.421;0.582;0.539;0.513;0.2538461538
9;bol_2014;bol;1;2014;E. Morales;0;0.333333333;333.333.333;7;21;0;22/01/2014;22/01/2020;1;1.575;1;2.575;0.858333332475;0.07152777770625;0.2625;0.166666666666667;Bolivia;5.307.692.308;Labor force participation rate;female (% of female population ages 15+) (modeled ILO estimate);Bolivia;6.081.999.969;Bolivia;25;0.656;0.383;0.515;0.494;0.461;0.5307692308
10;bra_2003;bra;1;2003;L. I. Lula Da Silva;0;0.130434783;130.434.783;3;23;0;01/01/2003;01/01/2007;0;0.644444444444444;0.4;104.444.444.444.444;0.136231884466667;0.0113526570388889;0.107407407407407;0.0666666666666667;Brazil;8.576.998.051;Labor force participation rate;female (% of female population ages 15+) (modeled ILO estimate);Brazil;5.289.799.881;Brazil;19;0.86;0.723;0.614;0.782;0.644;0.08576998051
11;bra_2007;bra;1;2007;L. I. Lula Da Silva;0;0.04;4;1;25;0;01/01/2007;31/12/2010;0;0.222222222222222;0.133333333333333;0.355555555555556;0.0142222222222222;0.00118518518518519;0.037037037037037;0.0222222222222222;Brazil;8.966.861.598;Labor force participation rate;female (% of female population ages 15+) (modeled ILO estimate);Brazil;545.379.982;Brazil;19;0.866;0.764;0.649;0.807;0.639;0.08966861598
12;bra_2011;bra;1;2011;D. Rousseff;0;0.266666667;266.666.667;9;33;1;01/01/2011;31/12/2014;1;154.642.857.142.857;103.921.568.627.451;258.564.425.770.308;0.68950513624937;0.0574587613541142;0.257738095238095;0.173202614379085;Brazil;8.576.998.051;Labor force participation rate;female (% of female population ages 15+) (modeled ILO estimate);Brazil;5.211.800.003;Brazil;19;0.886;0.788;0.665;0.83;0.646;0.08576998051
13;bra_2015;bra;1;2015;D. Rousseff;0;0.125;12.5;3;24;1;01/01/2015;31/08/2016;1;0.722222222222222;0.4;112.222.222.222.222;0.140277777777778;0.0116898148148148;0.12037037037037;0.0666666666666667;Brazil;9.941.520.468;Labor force participation rate;female (% of female population ages 15+) (modeled ILO estimate);Brazil;5.333.800.125;Brazil;19;0.867;0.763;0.62;0.792;0.669;0.09941520468
14;bra_2019;bra;1;2019;J. Bolsonaro;0;0.117647059;117.647.059;2;17;0;01/01/2019;31/12/2022;1;0.678571428571429;0.472222222222222;115.079.365.079.365;0.135387488531746;0.0112822907109788;0.113095238095238;0.0787037037037037;Brazil;1.500.974.659;Labor force participation rate;female (% of female population ages 15+) (modeled ILO estimate);Brazil;5.420.800.018;Brazil;19;0.674;0.508;0.439;0.425;0.319;0.1500974659
15;chi_2000;chi;1;2000;R. Lagos;0;0.3125;31.25;5;16;0;11/03/2000;11/03/2006;0;183.333.333.333.333;217.857.142.857.143;401.190.476.190.476;125.372.023.809.524;0.104476686507937;0.305555555555556;0.363095238095238;Chile;1.083.333.333;Labor force participation rate;female (% of female population ages 15+) (modeled ILO estimate);Chile;3.831.299.973;Chile;72;0.875;0.804;0.584;0.806;0.641;0.1083333333
16;chi_2006;chi;1;2006;M. Bachelet;0;0.5;50;10;19;1;11/03/2006;11/03/2010;0;315.151.515.151.515;3.125;627.651.515.151.515;313.825.757.575.758;0.261521464646465;0.525252525252525;0.520833333333333;Chile;15;Labor force participation rate;female (% of female population ages 15+) (modeled ILO estimate);Chile;4.224.200.058;Chile;72;0.898;0.847;0.589;0.845;0.653;0.15
17;chi_2010;chi;1;2010;S. Pi<f1>era Echenique;0;0.272727273;272.727.273;6;22;0;11/03/2010;11/03/2014;1;161.212.121.212.121;15.952.380.952.381;320.735.930.735.931;0.874734357427273;0.0728945297856061;0.268686868686869;0.265873015873016;Chile;1.416.666.667;Labor force participation rate;female (% of female population ages 15+) (modeled ILO estimate);Chile;4.690.999.985;Chile;72;0.894;0.836;0.582;0.825;0.679;0.1416666667
18;chi_2014;chi;1;2014;M. Bachelet;0;0.333333333;333.333.333;8;24;1;11/03/2014;11/03/2018;1;205.627.705.627.706;196.428.571.428.571;402.056.277.056.277;13.401.875.888.474;0.111682299070617;0.342712842712843;0.327380952380952;Chile;1.583.333.333;Labor force participation rate;female (% of female population ages 15+) (modeled ILO estimate);Chile;5.006.700.134;Chile;72;0.902;0.848;0.592;0.823;0.688;0.1583333333
19;chi_2018;chi;1;2018;S. Pi<f1>era Echenique;0;0.291666667;291.666.667;7;24;0;11/03/2018;11/03/2022;1;199.487.179.487.179;162.878.787.878.788;362.365.967.365.967;105.690.073.935.862;0.0880750616132187;0.332478632478632;0.271464646464646;Chile;2.258.064.516;Labor force participation rate;female (% of female population ages 15+) (modeled ILO estimate);Chile;5.160.800.171;Chile;72;0.852;0.775;0.569;0.751;0.633;0.2258064516
20;col_1999;col;1;1999;A. Pastrana;0;0.157894737;157.894.737;3;19;0;07/08/1998;07/08/2002;0;0.916666666666667;0.833333333333333;1.75;0.27631578975;0.0230263158125;0.152777777777778;0.138888888888889;Colombia;1.180.124.224;Labor force participation rate;female (% of female population ages 15+) (modeled ILO estimate);Colombia;5.327.099.991;Colombia;15;0.553;0.425;0.367;0.373;0.342;0.1180124224
21;col_2003;col;1;2003;A. Uribe Velez;0;0.461538462;461.538.462;6;13;0;07/08/2002;07/08/2006;0;3;3.25;6.25;28.846.153.875;0.240384615625;0.5;0.541666666666667;Colombia;1.204.819.277;Labor force participation rate;female (% of female population ages 15+) (modeled ILO estimate);Colombia;5.519.300.079;Colombia;15;0.571;0.451;0.391;0.203;0.359;0.1204819277
22;col_2007;col;1;2007;A. Uribe Velez;0;0.307692308;307.692.308;4;13;0;07/08/2006;07/08/2010;0;141.666.666.666.667;2.25;366.666.666.666.667;112.820.512.933.333;0.0940170941111111;0.236111111111111;0.375;Colombia;843.373.494;Labor force participation rate;female (% of female population ages 15+) (modeled ILO estimate);Colombia;5.049.599.838;Colombia;15;0.562;0.445;0.377;0.383;0.362;0.0843373494
23;col_2011;col;1;2011;J. M. Santos;0;0.307692308;307.692.308;4;13;0;07/08/2010;07/08/2014;1;204.166.666.666.667;2.25;429.166.666.666.667;132.051.282.183.333;0.110042735152778;0.340277777777778;0.375;Colombia;1.212.121.212;Labor force participation rate;female (% of female population ages 15+) (modeled ILO estimate);Colombia;5.652.899.933;Colombia;15;0.593;0.487;0.406;0.485;0.381;0.1212121212
24;col_2015;col;1;2015;J. M. Santos;0;0.3125;31.25;5;16;0;07/08/2014;07/08/2018;1;166.666.666.666.667;229.545.454.545.455;396.212.121.212.121;123.816.287.878.788;0.10318023989899;0.277777777777778;0.382575757575758;Colombia;1.987.951.807;Labor force participation rate;female (% of female population ages 15+) (modeled ILO estimate);Colombia;5.847.800.064;Colombia;15;0.711;0.573;0.451;0.595;0.413;0.1987951807
25;col_2019;col;1;2019;I. Duque Marquez;0;0.5;50;8;16;0;07/08/2018;07/08/2022;1;3;284.090.909.090.909;584.090.909.090.909;292.045.454.545.455;0.243371212121212;0.5;0.473484848484848;Colombia;1.871.345.029;Labor force participation rate;female (% of female population ages 15+) (modeled ILO estimate);Colombia;5.734.899.902;Colombia;15;0.667;0.503;0.455;0.467;0.368;0.1871345029
26;cos_2002;cos;1;2002;A. Pacheco de la Espirella;0;0.263157895;263.157.895;5;19;0;08/05/2002;08/05/2006;0;1.5;1.85;3.35;0.88157894825;0.0734649123541667;0.25;0.308333333333333;Costa Rica;350.877.193;Labor force participation rate;female (% of female population ages 15+) (modeled ILO estimate);Costa Rica;4.227.000.046;Costa Rica;73;0.887;0.828;0.648;0.836;0.791;0.350877193
27;cos_2006;cos;1;2006;O. Arias Sanchez;0;0.294117647;294.117.647;5;17;0;08/05/2006;08/05/2010;0;166.666.666.666.667;126.666.666.666.667;293.333.333.333.333;0.862745097866667;0.0718954248222222;0.277777777777778;0.211111111111111;Costa Rica;3.859.649.123;Labor force participation rate;female (% of female population ages 15+) (modeled ILO estimate);Costa Rica;4.458.599.854;Costa Rica;73;0.903;0.85;0.661;0.865;0.798;0.3859649123
28;cos_2010;cos;1;2010;L. Chinchilla Miranda;0;0.409090909;409.090.909;9;22;1;08/05/2010;08/05/2014;1;247.222.222.222.222;2;447.222.222.222.222;182.954.545.413.889;0.152462121178241;0.412037037037037;0.333333333333333;Costa Rica;3.859.649.123;Labor force participation rate;female (% of female population ages 15+) (modeled ILO estimate);Costa Rica;4.529.899.979;Costa Rica;73;0.913;0.857;0.707;0.865;0.825;0.3859649123
29;cos_2014;cos;1;2014;L. G. Sol<ed>s Rivera;0;0.428571429;428.571.429;9;21;0;08/05/2014;08/05/2018;1;2.175;170.909.090.909.091;388.409.090.909.091;1.664.610.391.275;0.13871753260625;0.3625;0.284848484848485;Costa Rica;3.333.333.333;Labor force participation rate;female (% of female population ages 15+) (modeled ILO estimate);Costa Rica;4.929.700.089;Costa Rica;73;0.904;0.845;0.687;0.853;0.83;0.3333333333
30;cos_2018;cos;1;2018;C. Alvarado Quesada;0;0.52173913;52.173.913;12;23;0;08/05/2018;08/05/2022;1;3;343.333.333.333.333;643.333.333.333.333;335.652.173.633.333;0.279710144694444;0.5;0.572222222222222;Costa Rica;4.561.403.509;Labor force participation rate;female (% of female population ages 15+) (modeled ILO estimate);Costa Rica;4.804.600.143;Costa Rica;73;0.879;0.812;0.648;0.82;0.782;0.4561403509
31;ecu_2003;ecu;1;2003;L. Gutierrez;0;0.266666667;266.666.667;4;15;0;15/01/2003;20/04/2005;0;159.047.619.047.619;2.15;374.047.619.047.619;0.997460318707143;0.0831216932255952;0.265079365079365;0.358333333333333;Ecuador;16;Labor force participation rate;female (% of female population ages 15+) (modeled ILO estimate);Ecuador;4.976.900.101;Ecuador;75;0.734;0.526;0.515;0.427;0.448;0.16
32;ecu_2007;ecu;1;2007;R. Correa;0;0.352941176;352.941.176;6;17;0;07/01/2007;10/08/2009;0;2.075;188.333.333.333.333;395.833.333.333.333;139.705.882.166.667;0.116421568472222;0.345833333333333;0.313888888888889;Ecuador;25;Labor force participation rate;female (% of female population ages 15+) (modeled ILO estimate);Ecuador;5.273.400.116;Ecuador;75;0.756;0.497;0.507;0.612;0.522;0.25
33;ecu_2010;ecu;1;2010;R. Correa;0;0.448275862;448.275.862;13;29;0;10/08/2009;24/05/2013;1;26.125;2.75;53.625;2.403.879.309.975;0.20032327583125;0.435416666666667;0.458333333333333;Ecuador;3.225.806.452;Labor force participation rate;female (% of female population ages 15+) (modeled ILO estimate);Ecuador;4.991.899.872;Ecuador;75;0.586;0.311;0.412;0.449;0.442;0.3225806452
34;ecu_2013;ecu;1;2013;R. Correa;0;0.464285714;464.285.714;13;28;0;24/05/2013;24/05/2017;1;2.75;288.333.333.333.333;563.333.333.333.333;261.547.618.886.667;0.217956349072222;0.458333333333333;0.480555555555556;Ecuador;3.868.613.139;Labor force participation rate;female (% of female population ages 15+) (modeled ILO estimate);Ecuador;4.941.899.872;Ecuador;75;0.584;0.312;0.406;0.429;0.443;0.3868613139
35;ecu_2017;ecu;1;2017;L. Moreno;0;0.304347826;304.347.826;7;23;0;24/05/2017;24/05/2021;1;183.333.333.333.333;1.6;343.333.333.333.333;104.492.753.593.333;0.0870772946611111;0.305555555555556;0.266666666666667;Ecuador;3.795.620.438;Labor force participation rate;female (% of female population ages 15+) (modeled ILO estimate);Ecuador;5.653.300.095;Ecuador;75;0.545;0.343;0.376;0.502;0.423;0.3795620438
36;sal_2004;sal;1;2004;E. A. Saca Gonzalez;0;0.153846154;153.846.154;2;13;0;01/06/2004;01/06/2009;0;0.928571428571429;0.833333333333333;176.190.476.190.476;0.271062271333333;0.0225885226111111;0.154761904761905;0.138888888888889;El Salvador;1.071.428.571;Labor force participation rate;female (% of female population ages 15+) (modeled ILO estimate);El Salvador;4.476.100.159;El Salvador;22;0.532;0.331;0.319;0.319;0.224;0.1071428571
37;sal_2009;sal;1;2009;M. Funes;0;0.153846154;153.846.154;2;13;0;01/06/2009;01/06/2014;0;1;0.666666666666667;166.666.666.666.667;0.256410256666667;0.0213675213888889;0.166666666666667;0.111111111111111;El Salvador;1.904.761.905;Labor force participation rate;female (% of female population ages 15+) (modeled ILO estimate);El Salvador;4.664.300.156;El Salvador;22;0.582;0.394;0.368;0.431;0.234;0.1904761905
38;sal_2014;sal;1;2014;S. Sanchez Cer<e9>n;0;0.230769231;230.769.231;3;13;0;01/06/2014;01/06/2019;1;1.3;0.857142857142857;215.714.285.714.286;0.4978021983;0.041483516525;0.216666666666667;0.142857142857143;El Salvador;2.738.095.238;Labor force participation rate;female (% of female population ages 15+) (modeled ILO estimate);El Salvador;461.570.015;El Salvador;22;0.68;0.461;0.414;0.488;0.313;0.2738095238
39;sal_2019;sal;1;2019;N. Bukele;0;0.5;50;8;16;0;01/06/2019;01/06/2024;1;285.714.285.714.286;2.95;580.714.285.714.286;290.357.142.857.143;0.241964285714286;0.476190476190476;0.491666666666667;El Salvador;3.095.238.095;Labor force participation rate;female (% of female population ages 15+) (modeled ILO estimate);El Salvador;4.531.999.969;El Salvador;22;0.631;0.437;0.376;0.428;0.278;0.3095238095
40;gua_2000;gua;1;2000;A. Portillo Cabrera;0;0.076923077;76.923.077;1;13;0;14/01/2000;14/01/2004;0;0.333333333333333;1;133.333.333.333.333;0.102564102666667;0.00854700855555556;0.0555555555555556;0.166666666666667;Guatemala;8.849.557.522;Labor force participation rate;female (% of female population ages 15+) (modeled ILO estimate);Guatemala;4.124.399.948;Guatemala;78;0.569;0.368;0.359;0.393;0.23;0.08849557522
41;gua_2004;gua;1;2004;O. Berger Perdomo;0;0.142857143;142.857.143;2;14;0;14/01/2004;14/01/2008;0;0.875;1.85;2.725;0.389285714675;0.0324404762229167;0.145833333333333;0.308333333333333;Guatemala;8.227.848.101;Labor force participation rate;female (% of female population ages 15+) (modeled ILO estimate);Guatemala;4.183.100.128;Guatemala;78;0.628;0.418;0.401;0.438;0.25;0.08227848101
42;gua_2008;gua;1;2008;A. Colom;0;0.076923077;76.923.077;1;13;0;14/01/2008;14/01/2012;0;0.333333333333333;0.285714285714286;0.619047619047619;0.0476190476666667;0.00396825397222222;0.0555555555555556;0.0476190476190476;Guatemala;1.202.531.646;Labor force participation rate;female (% of female population ages 15+) (modeled ILO estimate);Guatemala;4.100.299.835;Guatemala;78;0.611;0.394;0.376;0.425;0.255;0.1202531646
43;gua_2012;gua;1;2012;O. F. P<e9>rez Molina;0;0.153846154;153.846.154;2;13;0;14/01/2012;03/09/2015;1;133.333.333.333.333;0.571428571428571;19.047.619.047.619;0.293040293333333;0.0244200244444444;0.222222222222222;0.0952380952380952;Guatemala;1.329.113.924;Labor force participation rate;female (% of female population ages 15+) (modeled ILO estimate);Guatemala;4.609.899.902;Guatemala;78;0.618;0.374;0.368;0.397;0.244;0.1329113924
44;gua_2016;gua;1;2016;J. Morales;0;0.076923077;76.923.077;1;13;0;14/01/2016;14/01/2020;1;0.375;0.25;0.625;0.048076923125;0.00400641026041667;0.0625;0.0416666666666667;Guatemala;1.392.405.063;Labor force participation rate;female (% of female population ages 15+) (modeled ILO estimate);Guatemala;4.061.100.006;Guatemala;78;0.662;0.493;0.414;0.427;0.263;0.1392405063
45;hon_2002;hon;1;2002;R. Maduro;0;0.142857143;142.857.143;3;21;0;27/01/2002;27/01/2006;0;1;0.733333333333333;173.333.333.333.333;0.247619047866667;0.0206349206555556;0.166666666666667;0.122222222222222;Honduras;546.875;Labor force participation rate;female (% of female population ages 15+) (modeled ILO estimate);Honduras;434.109.993;Honduras;27;0.538;0.282;0.328;0.412;0.227;0.0546875
46;hon_2006;hon;1;2006;J. M. Zelaya Gonzalez;0;0.222222222;222.222.222;4;18;0;27/01/2006;28/06/2009;0;1.4;1;2.4;0.5333333328;0.0444444444;0.233333333333333;0.166666666666667;Honduras;234.375;Labor force participation rate;female (% of female population ages 15+) (modeled ILO estimate);Honduras;4.018.899.918;Honduras;27;0.481;0.275;0.286;0.42;0.239;0.234375
47;hon_2010;hon;1;2010;P. Lobo Sosa;0;0.125;12.5;2;16;0;27/01/2010;27/01/2014;1;0.875;0.833333333333333;170.833.333.333.333;0.213541666666667;0.0177951388888889;0.145833333333333;0.138888888888889;Honduras;1.796.875;Labor force participation rate;female (% of female population ages 15+) (modeled ILO estimate);Honduras;4.452.000.046;Honduras;27;0.433;0.214;0.265;0.333;0.168;0.1796875
48;hon_2014;hon;1;2014;J. O.Hernandez Alvarado;0;0.19047619;19.047.619;4;21;0;27/01/2014;27/01/2018;1;112.878.787.878.788;123.863.636.363.636;236.742.424.242.424;0.450937949810606;0.0375781624842172;0.188131313131313;0.206439393939394;Honduras;2.578.125;Labor force participation rate;female (% of female population ages 15+) (modeled ILO estimate);Honduras;4.670.800.018;Honduras;27;0.466;0.264;0.277;0.332;0.189;0.2578125
49;hon_2018;hon;1;2018;J. O.Hernandez Alvarado;0;0.210526316;210.526.316;4;19;0;27/01/2018;27/01/2022;1;126.666.666.666.667;122.077.922.077.922;248.744.588.744.589;0.523672818933333;0.0436394015777778;0.211111111111111;0.203463203463203;Honduras;2.109.375;Labor force participation rate;female (% of female population ages 15+) (modeled ILO estimate);Honduras;518.769.989;Honduras;27;0.366;0.215;0.247;0.297;0.145;0.2109375
50;mex_2001;mex;1;2001;V. Fox;0;0.166666667;166.666.667;3;18;0;01/12/2000;30/11/2006;0;0.833333333333333;122.222.222.222.222;205.555.555.555.556;0.342592593277778;0.0285493827731481;0.138888888888889;0.203703703703704;Mexico;16;Labor force participation rate;female (% of female population ages 15+) (modeled ILO estimate);Mexico;3.816.799.927;Mexico;3;0.698;0.511;0.454;0.539;0.411;0.16
51;mex_2007;mex;1;2007;F. Calder<f3>n;0;0.222222222;222.222.222;4;18;0;01/12/2006;30/11/2012;0;143.939.393.939.394;102.857.142.857.143;246.796.536.796.537;0.548436747888312;0.045703062324026;0.23989898989899;0.171428571428571;Mexico;23.2;Labor force participation rate;female (% of female population ages 15+) (modeled ILO estimate);Mexico;4.287.599.945;Mexico;3;0.661;0.5;0.425;0.56;0.378;0.232
52;mex_2013;mex;1;2013;E. Pe<f1>a Nieto;0;0.166666667;166.666.667;3;18;0;01/12/2012;30/11/2018;1;0.75;1.4;2.15;0.35833333405;0.0298611111708333;0.125;0.233333333333333;Mexico;36.8;Labor force participation rate;female (% of female population ages 15+) (modeled ILO estimate);Mexico;4.449.399.948;Mexico;3;0.674;0.501;0.387;0.504;0.377;0.368
53;mex_2019;mex;1;2019;A. M. Lopez Obrador;0;0.421052632;421.052.632;8;19;0;01/12/2018;01/12/2024;1;2.5;222.727.272.727.273;472.727.272.727.273;1.990.430.624;0.165869218666667;0.416666666666667;0.371212121212121;Mexico;48.2;Labor force participation rate;female (% of female population ages 15+) (modeled ILO estimate);Mexico;4.418.500.137;Mexico;3;0.71;0.486;0.414;0.469;0.422;0.482
54;nic_2002;nic;1;2002;E. Bola<f1>os;0;0.153846154;153.846.154;2;13;0;10/01/2002;10/01/2007;0;0.666666666666667;128.571.428.571.429;195.238.095.238.095;0.300366300666667;0.0250305250555556;0.111111111111111;0.214285714285714;Nicaragua;2.065.217.391;Labor force participation rate;female (% of female population ages 15+) (modeled ILO estimate);Nicaragua;4.071.099.854;Nicaragua;59;0.666;0.43;0.401;0.502;0.36;0.2065217391
55;nic_2007;nic;1;2007;D. Ortega;0;0.384615385;384.615.385;5;13;0;10/01/2007;10/01/2012;0;3.25;210.714.285.714.286;535.714.285.714.286;20.604.395.625;0.171703296875;0.541666666666667;0.351190476190476;Nicaragua;1.847.826.087;Labor force participation rate;female (% of female population ages 15+) (modeled ILO estimate);Nicaragua;4.575.400.162;Nicaragua;59;0.49;0.242;0.282;0.392;0.29;0.1847826087
56;nic_2012;nic;1;2012;D. Ortega;0;0.461538462;461.538.462;6;13;0;10/01/2012;10/01/2017;1;3.5;239.285.714.285.714;589.285.714.285.714;27.197.802.225;0.226648351875;0.583333333333333;0.398809523809524;Nicaragua;402.173.913;Labor force participation rate;female (% of female population ages 15+) (modeled ILO estimate);Nicaragua;4.806.100.082;Nicaragua;59;0.394;0.168;0.245;0.314;0.239;0.402173913
57;nic_2017;nic;1;2017;D. Ortega;0;0.588235294;588.235.294;10;17;0;10/01/2017;10/01/2022;1;298.214.285.714.286;3.3;628.214.285.714.286;369.537.815.052.143;0.307948179210119;0.49702380952381;0.55;Nicaragua;4.565.217.391;Labor force participation rate;female (% of female population ages 15+) (modeled ILO estimate);Nicaragua;5.015.599.823;Nicaragua;59;0.278;0.102;0.18;0.16;0.164;0.4565217391
58;pan_2000;pan;1;2000;M. Moscoso;0;0.214285714;214.285.714;3;14;1;01/09/1999;01/09/2004;0;1;1.85;2.85;0.6107142849;0.050892857075;0.166666666666667;0.308333333333333;Panama;985.915.493;Labor force participation rate;female (% of female population ages 15+) (modeled ILO estimate);Panama;4.485.900.116;Panama;92;0.791;0.617;0.532;0.685;0.61;0.0985915493
59;pan_2005;pan;1;2005;M. Torrijos Espino;0;0.166666667;166.666.667;2;12;0;01/09/2004;01/07/2009;0;133.333.333.333.333;128.571.428.571.429;261.904.761.904.762;0.436507937380952;0.0363756614484127;0.222222222222222;0.214285714285714;Panama;1.666.666.667;Labor force participation rate;female (% of female population ages 15+) (modeled ILO estimate);Panama;4.795.199.966;Panama;92;0.79;0.588;0.523;0.696;0.599;0.1666666667
60;pan_2010;pan;1;2010;R. Martinelli;0;0.214285714;214.285.714;3;14;0;01/07/2009;01/07/2014;1;1;1.5;2.5;0.535714285;0.0446428570833333;0.166666666666667;0.25;Panama;8.450.704.225;Labor force participation rate;female (% of female population ages 15+) (modeled ILO estimate);Panama;4.708.800.125;Panama;92;0.77;0.58;0.512;0.68;0.584;0.08450704225
61;pan_2015;pan;1;2015;J. C. Varela;0;0.142857143;142.857.143;2;14;0;01/07/2014;01/07/2019;1;0.666666666666667;0.75;141.666.666.666.667;0.202380952583333;0.0168650793819444;0.111111111111111;0.125;Panama;1.830.985.915;Labor force participation rate;female (% of female population ages 15+) (modeled ILO estimate);Panama;5.070.999.908;Panama;92;0.791;0.591;0.524;0.639;0.579;0.1830985915
62;par_2004;par;1;2004;N. Duarte Frutos;0;0.2;20;2;10;0;15/08/2003;15/08/2008;0;1;108.333.333.333.333;208.333.333.333.333;0.416666666666667;0.0347222222222222;0.166666666666667;0.180555555555556;Paraguay;10;Labor force participation rate;female (% of female population ages 15+) (modeled ILO estimate);Paraguay;5.729.600.143;Paraguay;189;0.603;0.455;0.384;0.335;0.278;0.1
63;par_2009;par;1;2009;F. Lugo;0;0.076923077;76.923.077;1;13;0;15/08/2008;22/06/2012;0;0.5;0.25;0.75;0.05769230775;0.0048076923125;0.0833333333333333;0.0416666666666667;Paraguay;12.5;Labor force participation rate;female (% of female population ages 15+) (modeled ILO estimate);Paraguay;5.626.300.049;Paraguay;189;0.668;0.512;0.438;0.488;0.318;0.125
64;par_2014;par;1;2014;H.M. Cart<e9>s Jara;0;0.214285714;214.285.714;3;14;0;15/08/2013;15/08/2018;1;1;1.5;2.5;0.535714285;0.0446428570833333;0.166666666666667;0.25;Paraguay;15;Labor force participation rate;female (% of female population ages 15+) (modeled ILO estimate);Paraguay;5.598.799.896;Paraguay;189;0.601;0.426;0.39;0.371;0.231;0.15
65;par_2019;par;1;2019;M. Abdo Ben<ed>tez;0;0.235294118;235.294.118;4;17;0;15/08/2018;15/08/2023;1;1.25;1.5;2.75;0.6470588245;0.0539215687083333;0.208333333333333;0.25;Paraguay;15;Labor force participation rate;female (% of female population ages 15+) (modeled ILO estimate);Paraguay;5.922.000.122;Paraguay;189;0.601;0.427;0.392;0.396;0.286;0.15
66;per_2002;per;1;2002;A. Toledo;0;0;0;0;11;0;28/07/2001;28/07/2006;0;0;0;0;0;0;0;0;Peru;1.833.333.333;Labor force participation rate;female (% of female population ages 15+) (modeled ILO estimate);Peru;6.242.499.924;Peru;30;0.795;0.656;0.551;0.734;0.44;0.1833333333
67;per_2007;per;1;2007;A. Garc<ed>a;0;0.4;40;6;15;0;28/07/2006;28/07/2011;0;233.333.333.333.333;2.55;488.333.333.333.333;195.333.333.333.333;0.162777777777778;0.388888888888889;0.425;Peru;2.916.666.667;Labor force participation rate;female (% of female population ages 15+) (modeled ILO estimate);Peru;6.991.899.872;Peru;30;0.809;0.602;0.556;0.637;0.47;0.2916666667
68;per_2012;per;1;2012;O. Humala Tasso;0;0.176470588;176.470.588;3;17;0;28/07/2011;28/07/2016;1;0.75;118.181.818.181.818;193.181.818.181.818;0.340909090454545;0.0284090908712121;0.125;0.196969696969697;Peru;2.153.846.154;Labor force participation rate;female (% of female population ages 15+) (modeled ILO estimate);Peru;7.106.199.646;Peru;30;0.775;0.608;0.575;0.619;0.478;0.2153846154
69;per_2017;per;1;2017;P.P. Kuczynski;0;0.277777778;277.777.778;5;18;0;28/07/2016;23/03/2018;1;1.6;116.666.666.666.667;276.666.666.666.667;0.768518519133333;0.0640432099277778;0.266666666666667;0.194444444444444;Peru;2.769.230.769;Labor force participation rate;female (% of female population ages 15+) (modeled ILO estimate);Peru;6.946.199.799;Peru;30;0.753;0.644;0.509;0.608;0.488;0.2769230769
70;dom_2001;dom;1;2001;H. Mejia;0;0.176470588;176.470.588;3;17;0;16/08/2000;16/08/2004;0;106.666.666.666.667;0.685714285714286;175.238.095.238.095;0.309243697066667;0.0257703080888889;0.177777777777778;0.114285714285714;Dominican Republic;1.610.738.255;Labor force participation rate;female (% of female population ages 15+) (modeled ILO estimate);Dominican Republic;3.950.899.887;Dominican Republic;114;0.667;0.364;0.437;0.526;0.375;0.1610738255
71;dom_2005;dom;1;2005;L. Fernandez;0;0.166666667;166.666.667;3;18;0;16/08/2004;16/08/2008;0;0.5;0.7;1.2;0.2000000004;0.0166666667;0.0833333333333333;0.116666666666667;Dominican Republic;1.733.333.333;Labor force participation rate;female (% of female population ages 15+) (modeled ILO estimate);Dominican Republic;4.022.100.067;Dominican Republic;114;0.636;0.357;0.412;0.518;0.344;0.1733333333
72;dom_2009;dom;1;2009;L. Fernandez;0;0.105263158;105.263.158;2;19;0;16/08/2008;16/08/2012;0;0.333333333333333;0.45;0.783333333333333;0.0824561404333333;0.00687134503611111;0.0555555555555556;0.075;Dominican Republic;1.966.292.135;Labor force participation rate;female (% of female population ages 15+) (modeled ILO estimate);Dominican Republic;3.966.199.875;Dominican Republic;114;0.635;0.363;0.399;0.516;0.364;0.1966292135
73;dom_2013;dom;1;2013;D. Medina;0;0.173913043;173.913.043;4;23;0;16/08/2012;16/08/2016;1;0.75;0.7;1.45;0.25217391235;0.0210144926958333;0.125;0.116666666666667;Dominican Republic;2.076.502.732;Labor force participation rate;female (% of female population ages 15+) (modeled ILO estimate);Dominican Republic;4.620.399.857;Dominican Republic;114;0.648;0.353;0.415;0.516;0.372;0.2076502732
74;dom_2017;dom;1;2017;D. Medina;0;0.333333333;333.333.333;6;18;0;16/08/2016;16/08/2020;1;1.8;140.909.090.909.091;320.909.090.909.091;106.969.696.862.727;0.0891414140522727;0.3;0.234848484848485;Dominican Republic;2.684.210.526;Labor force participation rate;female (% of female population ages 15+) (modeled ILO estimate);Dominican Republic;5.063.299.942;Dominican Republic;114;0.556;0.274;0.327;0.386;0.294;0.2684210526
75;uru_2000;uru;1;2000;J. L. Batlle Iba<f1>ez;0;0;0;0;13;0;01/03/2000;01/03/2005;0;0;0;0;0;0;0;0;Uruguay;1.212.121.212;Labor force participation rate;female (% of female population ages 15+) (modeled ILO estimate);Uruguay;508.390.007;Uruguay;102;0.888;0.791;0.74;0.832;0.769;0.1212121212
76;uru_2005;uru;1;2005;R. Tabar<e9> Vazquez;0;0.166666667;166.666.667;2;12;0;01/03/2005;01/03/2010;0;0.928571428571429;103.571.428.571.429;196.428.571.428.571;0.327380953035714;0.0272817460863095;0.154761904761905;0.172619047619048;Uruguay;1.111.111.111;Labor force participation rate;female (% of female population ages 15+) (modeled ILO estimate);Uruguay;5.231.600.189;Uruguay;102;0.892;0.832;0.759;0.85;0.781;0.1111111111
77;uru_2010;uru;1;2010;J. Mujica;0;0.083333333;83.333.333;1;12;0;01/03/2010;01/03/2015;1;0.666666666666667;0.285714285714286;0.952380952380952;0.079365079047619;0.00661375658730159;0.111111111111111;0.0476190476190476;Uruguay;1.515.151.515;Labor force participation rate;female (% of female population ages 15+) (modeled ILO estimate);Uruguay;5.533.000.183;Uruguay;102;0.912;0.843;0.782;0.862;0.817;0.1515151515
78;uru_2015;uru;1;2015;R. Tabar<e9> Vazquez;0;0.384615385;384.615.385;5;13;0;01/03/2015;01/03/2020;1;242.857.142.857.143;2;442.857.142.857.143;1.703.296.705;0.141941392083333;0.404761904761905;0.333333333333333;Uruguay;1.616.161.616;Labor force participation rate;female (% of female population ages 15+) (modeled ILO estimate);Uruguay;5.574.200.058;Uruguay;102;0.865;0.788;0.723;0.788;0.756;0.1616161616
79;ven_1999;ven;1;1999;H. Chavez;0;0.230769231;230.769.231;3;13;0;02/02/1999;10/01/2001;0;0;0;0;0;0;0;0;Venezuela, RB;1.213.592.233;Labor force participation rate;female (% of female population ages 15+) (modeled ILO estimate);Venezuela, RB;4.718.099.976;Venezuela;51;0.725;0.49;0.536;0.589;0.482;0.1213592233
80;ven_2001;ven;1;2001;H. Chavez;0;0.230769231;230.769.231;3;13;0;02/02/1999;11/04/2002;0;0;0;0;0;0;0;0;Venezuela, RB;9.696.969.697;Labor force participation rate;female (% of female population ages 15+) (modeled ILO estimate);Venezuela, RB;4.802.500.153;Venezuela;51;0.529;0.298;0.367;0.373;0.379;0.09696969697
81;ven_2007;ven;1;2007;H. Chavez;0;0.2;20;5;25;0;10/01/2007;05/03/2013;0;117.802.197.802.198;0.928571428571429;210.659.340.659.341;0.421318681318681;0.0351098901098901;0.196336996336996;0.154761904761905;Venezuela, RB;1.856.287.425;Labor force participation rate;female (% of female population ages 15+) (modeled ILO estimate);Venezuela, RB;4.964.699.936;Venezuela;51;0.441;0.174;0.311;0.276;0.321;0.1856287425
82;ven_2013;ven;1;2013;N. Maduro;0;0.413793103;413.793.103;12;29;0;05/03/2013;01/01/2019;1;235.641.025.641.026;232.142.857.142.857;467.783.882.783.883;193.565.744.390.531;0.161304786992109;0.392735042735043;0.386904761904762;Venezuela, RB;1.696.969.697;Labor force participation rate;female (% of female population ages 15+) (modeled ILO estimate);Venezuela, RB;4.964.799.881;Venezuela;51;0.367;0.134;0.233;0.146;0.254;0.1696969697
